NORAD_CAT_ID,OBJECT_NAME,OBJECT_TYPE,EPOCH,MEAN_MOTION,ECCENTRICITY,INCLINATION,RA_OF_ASC_NODE,ARG_OF_PERICENTER,MEAN_ANOMALY,BSTAR,MEAN_MOTION_DOT,MEAN_MOTION_DDOT,TLE_LINE0,TLE_LINE1,TLE_LINE2,SEMIMAJOR_AXIS,PERIOD,APOGEE,PERIGEE,DECAYED
49771.0,STARLINK-3201,PAYLOAD,2022-04-26 06:00:00,15.08854223,0.0001868,53.2168,4.307,45.0322,20.2069,-0.0011878,-0.0001915,0.0,0 STARLINK-3201,1 49771U 21115AZ  22116.25001157 -.00019150  00000-0 -11878-2 0  9996,2 49771  53.2168   4.3070 0001868  45.0322  20.2069 15.08854223 23404,6917.837,95.437,540.994,538.41,0.0
49771.0,STARLINK-3201,PAYLOAD,2022-04-26 14:00:01,15.08803986,0.0001641999999999,53.2172,2.809,50.4269,26.4889,0.0033619999999999,0.00053572,0.0,0 STARLINK-3201,1 49771U 21115AZ  22116.58335648  .00053572  00000-0  33620-2 0  9990,2 49771  53.2172   2.8090 0001642  50.4269  26.4889 15.08803986  3602,6917.99,95.44,540.991,538.72,0.0
49771.0,STARLINK-3201,PAYLOAD,2022-04-26 22:00:00,15.0885199,0.0001783,53.2172,1.3144,46.3395,42.0872,-0.0013436,-0.00021615,0.0,0 STARLINK-3201,1 49771U 21115AZ  22116.91667824 -.00021615  00000-0 -13436-2 0  9999,2 49771  53.2172   1.3144 0001783  46.3395  42.0872 15.08851990  3576,6917.844,95.437,540.942,538.475,0.0
49771.0,STARLINK-3201,PAYLOAD,2022-04-27 06:00:00,15.08857281,0.0001761,53.2169,359.8180000000001,42.9916,57.0325,-0.0038227,-0.00060644,0.0,0 STARLINK-3201,1 49771U 21115AZ  22117.25001157 -.00060644  00000-0 -38227-2 0  9998,2 49771  53.2169 359.8180 0001761  42.9916  57.0325 15.08857281 23558,6917.828,95.436,540.911,538.474,0.0
49771.0,STARLINK-3201,PAYLOAD,2022-04-27 14:00:01,15.08786688,0.000157,53.2171,358.3201,49.752,61.9351,0.00631,0.00101436,0.0,0 STARLINK-3201,1 49771U 21115AZ  22117.58335648  .00101436  00000-0  63100-2 0  9990,2 49771  53.2171 358.3201 0001570  49.7520  61.9351 15.08786688  3613,6918.043000000002,95.441,540.994,538.822,0.0
49771.0,STARLINK-3201,PAYLOAD,2022-04-27 22:00:00,15.08853387,0.0001748,53.217,356.8256,46.8924,76.3111,-0.002066,-0.0003303,0.0,0 STARLINK-3201,1 49771U 21115AZ  22117.91667824 -.00033030  00000-0 -20660-2 0  9991,2 49771  53.2170 356.8256 0001748  46.8924  76.3111 15.08853387 23659,6917.839,95.437,540.914,538.495,0.0
49771.0,STARLINK-3201,PAYLOAD,2022-04-28 14:00:01,15.08820534,0.0001705,53.2166,353.8313,54.86,91.5592,0.0036043,0.00057512,0.0,0 STARLINK-3201,1 49771U 21115AZ  22118.58334491  .00057512  00000-0  36043-2 0  9997,2 49771  53.2166 353.8313 0001705  54.8600  91.5592 15.08820534 23759,6917.94,95.439,540.984,538.625,0.0
49771.0,STARLINK-3201,PAYLOAD,2022-04-29 06:00:00,15.08868901,0.000182,53.2158,350.8399,49.3078,120.3213,-0.0041222,-0.00065351,0.0,0 STARLINK-3201,1 49771U 21115AZ  22119.25001157 -.00065351  00000-0 -41222-2 0  9999,2 49771  53.2158 350.8399 0001820  49.3078 120.3213 15.08868901 23859,6917.792,95.436,540.9159999999998,538.398,0.0
49771.0,STARLINK-3201,PAYLOAD,2022-04-29 14:00:01,15.08823675,0.0001737,53.2159,349.3423,56.2413,124.9924,0.00028373,4.228e-05,0.0,0 STARLINK-3201,1 49771U 21115AZ  22119.58334491  .00004228  00000-0  28373-3 0  9992,2 49771  53.2159 349.3423 0001737  56.2413 124.9924 15.08823675  3562,6917.93,95.439,540.997,538.594,0.0
49771.0,STARLINK-3201,PAYLOAD,2022-04-29 22:00:00,15.08812863,0.0001829,53.2157,347.8476,49.6357,143.18,0.00066999,0.00010383,0.0,0 STARLINK-3201,1 49771U 21115AZ  22119.91667824  .00010383  00000-0  66999-3 0  9993,2 49771  53.2157 347.8476 0001829  49.6357 143.1800 15.08812863 23954,6917.9630000000025,95.439,541.094,538.563,0.0
49771.0,STARLINK-3201,PAYLOAD,2022-04-30 14:00:01,15.08806412,0.0001636999999999,53.2154,344.853,52.7474,163.2165,0.0029005,0.00046133,0.0,0 STARLINK-3201,1 49771U 21115AZ  22120.58334491  .00046133  00000-0  29005-2 0  9997,2 49771  53.2154 344.8530 0001637  52.7474 163.2165 15.08806412  3566,6917.983,95.44,540.981,538.716,0.0
49771.0,STARLINK-3201,PAYLOAD,2022-04-30 22:00:00,15.0882988,0.0001819,53.2152,343.3583,46.8122,180.7272,0.00038404,5.828e-05,0.0,0 STARLINK-3201,1 49771U 21115AZ  22120.91667824  .00005828  00000-0  38404-3 0  9993,2 49771  53.2152 343.3583 0001819  46.8122 180.7272 15.08829880  3569,6917.911,95.438,541.035,538.518,0.0
49771.0,STARLINK-3201,PAYLOAD,2022-05-01 06:00:00,15.08852715,0.0001720999999999,53.2152,341.8611,44.3643,194.758,-0.0033382,-0.00053043,0.0,0 STARLINK-3201,1 49771U 21115AZ  22121.25001157 -.00053043  00000-0 -33382-2 0  9995,2 49771  53.2152 341.8611 0001721  44.3643 194.7580 15.08852715 24166,6917.842,95.437,540.8969999999998,538.516,0.0
49771.0,STARLINK-3201,PAYLOAD,2022-05-01 14:00:01,15.08826078,0.000159,53.2154,340.3635,49.647,201.061,0.0010997,0.0001725,0.0,0 STARLINK-3201,1 49771U 21115AZ  22121.58334491  .00017250  00000-0  10997-2 0  9996,2 49771  53.2154 340.3635 0001590  49.6470 201.0610 15.08826078  3580,6917.9230000000025,95.438,540.888,538.688,0.0
49771.0,STARLINK-3201,PAYLOAD,2022-05-01 22:00:01,15.08813524,0.0001783,53.2153,338.8688,42.4187,219.9431,-3.5357e-06,-3.44e-06,0.0,0 STARLINK-3201,1 49771U 21115AZ  22121.91668981 -.00000344  00000-0 -35357-5 0  9995,2 49771  53.2153 338.8688 0001783  42.4187 219.9431 15.08813524  3568,6917.9609999999975,95.439,541.06,538.5930000000002,0.0
49771.0,STARLINK-3201,PAYLOAD,2022-05-02 14:00:01,15.08823401,0.0001618,53.2157,335.8741,47.6831,237.7529,0.002082,0.00032988,0.0,0 STARLINK-3201,1 49771U 21115AZ  22122.58334491  .00032988  00000-0  20820-2 0  9998,2 49771  53.2157 335.8741 0001618  47.6831 237.7529 15.08823401  3605,6917.931,95.439,540.915,538.677,0.0
49771.0,STARLINK-3201,PAYLOAD,2022-05-02 22:00:01,15.08832976,0.0001858,53.2159,334.3794,42.8413,254.2479,0.00078598,0.00012241,0.0,0 STARLINK-3201,1 49771U 21115AZ  22122.91668981  .00012241  00000-0  78598-3 0  9995,2 49771  53.2159 334.3794 0001858  42.8413 254.2479 15.08832976 24415,6917.901999999999,95.438,541.052,538.482,0.0
49771.0,STARLINK-3201,PAYLOAD,2022-05-03 14:00:01,15.08825923,0.0001768,53.2163,331.3847,51.1004,269.1083,0.0016972,0.00026816,0.0,0 STARLINK-3201,1 49771U 21115AZ  22123.58334491  .00026816  00000-0  16972-2 0  9995,2 49771  53.2163 331.3847 0001768  51.1004 269.1083 15.08825923  3568,6917.9230000000025,95.438,541.012,538.565,0.0
49771.0,STARLINK-3201,PAYLOAD,2022-05-03 22:00:00,15.08830771,0.0001971,53.2162,329.89,45.6453,286.1573,0.0013962,0.00021997,0.0,0 STARLINK-3201,1 49771U 21115AZ  22123.91667824  .00021997  00000-0  13962-2 0  9992,2 49771  53.2162 329.8900 0001971  45.6453 286.1573 15.08830771 24564,6917.909000000002,95.438,541.137,538.41,0.0
49771.0,STARLINK-3201,PAYLOAD,2022-05-04 14:00:01,15.08869232,0.0001728,53.2165,326.8954,50.8125,304.1906,-0.00031046,-5.23e-05,0.0,0 STARLINK-3201,1 49771U 21115AZ  22124.58334491 -.00005230  00000-0 -31046-3 0  9995,2 49771  53.2165 326.8954 0001728  50.8125 304.1906 15.08869232  3604,6917.791,95.436,540.851,538.461,0.0
49771.0,STARLINK-3201,PAYLOAD,2022-05-04 20:00:01,15.08861585,0.0001871,53.2162,325.7744,45.3926,228.3986,-0.0019633,-0.00031417,0.0,0 STARLINK-3201,1 49771U 21115AZ  22124.83335648 -.00031417  00000-0 -19633-2 0  9991,2 49771  53.2162 325.7744 0001871  45.3926 228.3986 15.08861585 24705,6917.814,95.436,540.974,538.385,0.0
49771.0,STARLINK-3201,PAYLOAD,2022-05-04 22:00:01,15.08837203,0.0001897,53.2164,325.4006,44.718,321.983,0.000965,0.00015102,0.0,0 STARLINK-3201,1 49771U 21115AZ  22124.91668981  .00015102  00000-0  96500-3 0  9999,2 49771  53.2164 325.4006 0001897  44.7180 321.9830 15.08837203  3613,6917.889,95.438,541.066,538.442,0.0
49771.0,STARLINK-3201,PAYLOAD,2022-05-05 14:00:01,15.08835231,0.0001773,53.2164,322.4063,52.6299,337.1943,0.00077871,0.00012125,0.0,0 STARLINK-3201,1 49771U 21115AZ  22125.58334491  .00012125  00000-0  77871-3 0  9991,2 49771  53.2164 322.4063 0001773  52.6299 337.1943 15.08835231  3573,6917.895,95.438,540.987,538.533,0.0
49771.0,STARLINK-3201,PAYLOAD,2022-05-05 16:00:00,15.08849674,0.0001809,53.2163,322.0326,50.9649,71.7538,-0.0011751,-0.00018946,0.0,0 STARLINK-3201,1 49771U 21115AZ  22125.66667824 -.00018946  00000-0 -11751-2 0  9992,2 49771  53.2163 322.0326 0001809  50.9649  71.7538 15.08849674 24828,6917.851,95.437,540.967,538.464,0.0
49771.0,STARLINK-3201,PAYLOAD,2022-05-05 22:00:00,15.08830133,0.0001927,53.2161,320.9115,46.8317,354.5895,0.0010796,0.00016931,0.0,0 STARLINK-3201,1 49771U 21115AZ  22125.91667824  .00016931  00000-0  10796-2 0  9998,2 49771  53.2161 320.9115 0001927  46.8317 354.5895 15.08830133  3573,6917.911,95.438,541.109,538.442,0.0
49771.0,STARLINK-3201,PAYLOAD,2022-05-06 14:00:01,15.08833915,0.0001698,53.216,317.9173,51.6148,12.9744,0.00010626,1.403e-05,0.0,0 STARLINK-3201,1 49771U 21115AZ  22126.58334491  .00001403  00000-0  10626-3 0  9994,2 49771  53.2160 317.9173 0001698  51.6148  12.9744 15.08833915  3617,6917.899,95.438,540.939,538.589,0.0
49771.0,STARLINK-3201,PAYLOAD,2022-05-06 22:00:00,15.08816277,0.0001866,53.2158,316.4226,45.9567,30.2259,0.0023293,0.00036954,0.0,0 STARLINK-3201,1 49771U 21115AZ  22126.91667824  .00036954  00000-0  23293-2 0  9992,2 49771  53.2158 316.4226 0001866  45.9567  30.2259 15.08816277 25019,6917.953,95.439,541.109,538.5269999999998,0.0
49771.0,STARLINK-3201,PAYLOAD,2022-05-07 14:00:01,15.08862631,0.0001553,53.2155,313.4281,52.8471,46.5558,-0.0029641,-0.00047182,0.0,0 STARLINK-3201,1 49771U 21115AZ  22127.58334491 -.00047182  00000-0 -29641-2 0  9997,2 49771  53.2155 313.4281 0001553  52.8471  46.5558 15.08862631  3606,6917.811,95.436,540.751,538.602,0.0
49771.0,STARLINK-3201,PAYLOAD,2022-05-07 22:00:00,15.08801549,0.0001656,53.2154,311.9335,44.2558,66.7592,0.0028557,0.00045406,0.0,0 STARLINK-3201,1 49771U 21115AZ  22127.91667824  .00045406  00000-0  28557-2 0  9993,2 49771  53.2154 311.9335 0001656  44.2558  66.7592 15.08801549 25161,6917.998000000001,95.44,541.009,538.717,0.0
